0 HIPPARCOS
1 20169U 89062B   18032.14629394 -.00000006 +00000-0 +33226-3 0  9991
2 20169 006.9963 059.6290 7187466 176.3410 195.5088 02.26149433200186
0 HIPPARCOS
1 20169U 89062B   18033.46782316 -.00000053 +00000-0 +18939-3 0  9997
2 20169 006.9993 059.1310 7187374 177.3276 191.4125 02.26149576200215
0 HIPPARCOS
1 20169U 89062B   18033.46782316 -.00000053  00000-0  18939-3 0  9997
2 20169   6.9993  59.1310 7187374 177.3276 191.4125  2.26149576200136
0 HIPPARCOS
1 20169U 89062B   18034.34879931 -.00000064 +00000-0 +18604-3 0  9996
2 20169 007.0024 058.7949 7187366 177.9896 188.6462 02.26149602200234
0 HIPPARCOS
1 20169U 89062B   18034.78927790 -.00000069  00000-0  16628-3 0  9990
2 20169   7.0040  58.6266 7187348 178.3209 187.2557  2.26149610200167
0 HIPPARCOS
1 20169U 89062B   18035.22975537 -.00000070 +00000-0 +15429-3 0  9992
2 20169 007.0057 058.4586 7187325 178.6516 185.8646 02.26149627200258
0 HIPPARCOS
1 20169U 89062B   18036.11069542 -.00000066  00000-0  12448-3 0  9994
2 20169   7.0087  58.1232 7187304 179.3131 183.0694  2.26149664200191
0 HIPPARCOS
1 20169U 89062B   18037.43208633 -.00000047  00000-0  88047-4 0  9994
2 20169   7.0134  57.6213 7187292 180.3052 178.8599  2.26149716200225
0 HIPPARCOS
1 20169U 89062B   18038.31301644 -.00000033 +00000-0 +46652-4 0  9999
2 20169 007.0164 057.2868 7187265 180.9656 176.0571 02.26149752200327
0 HIPPARCOS
1 20169U 89062B   18038.31301981 -.00000033 +00000-0 +42855-4 0  9994
2 20169 007.0164 057.2867 7187273 180.9650 176.0603 02.26149752200325
0 HIPPARCOS
1 20169U 89062B   18039.19395788 -.00000019  00000-0 -30302-6 0  9990
2 20169   7.0195  56.9523 7187250 181.6249 173.2644  2.26149773200261
0 HIPPARCOS
1 20169U 89062B   18041.83687750  .00000002  00000-0 -10722-3 0  9999
2 20169   7.0283  55.9528 7187304 183.6002 164.9619  2.26149741200323
0 HIPPARCOS
1 20169U 89062B   18044.92050902 -.00000057  00000-0 -42397-3 0  9999
2 20169   7.0386  54.7912 7187493 185.9022 155.4599  2.26149554200398
0 HIPPARCOS
1 20169U 89062B   18046.24211323 -.00000078  00000-0 -48105-3 0  9998
2 20169   7.0414  54.2876 7187599 186.8929 151.4254  2.26149656200428
0 HIPPARCOS
1 20169U 89062B   18046.68265710 -.00000084 +00000-0 -49461-3 0  9998
2 20169 007.0429 054.1218 7187616 187.2229 150.0871 02.26149602200512
0 HIPPARCOS
1 20169U 89062B   18047.12321670 -.00000091 +00000-0 -51725-3 0  9990
2 20169 007.0442 053.9564 7187664 187.5504 148.7628 02.26149523200527
0 HIPPARCOS
1 20169U 89062B   18047.56377319 -.00000103  00000-0 -58592-3 0  9992
2 20169   7.0457  53.7909 7187685 187.8793 147.4353  2.26149450200452
0 HIPPARCOS
1 20169U 89062B   18049.32605206 -.00000146  00000-0 -88754-3 0  9997
2 20169   7.0517  53.1304 7187846 189.1916 142.1679  2.26149083200492
0 HIPPARCOS
1 20169U 89062B   18049.76664325 -.00000154 +00000-0 -96125-3 0  9992
2 20169 007.0535 052.9663 7187896 189.5174 140.8692 02.26148988200585
0 HIPPARCOS
1 20169U 89062B   18050.64782874 -.00000150  00000-0 -97715-3 0  9993
2 20169   7.0568  52.6377 7187955 190.1721 138.2711  2.26148775200523
0 HIPPARCOS
1 20169U 89062B   18051.52903437 -.00000142 +00000-0 -98440-3 0  9998
2 20169 007.0597 052.3087 7188002 190.8285 135.6881 02.26148571200620
0 HIPPARCOS
1 20169U 89062B   18052.85092588 -.00000103  00000-0 -82539-3 0  9990
2 20169   7.0649  51.8170 7188076 191.8095 131.8803  2.26148319200572
0 HIPPARCOS
1 20169U 89062B   18053.29157718 -.00000084 +00000-0 -72874-3 0  9995
2 20169 007.0666 051.6533 7188081 192.1368 130.6272 02.26148261200668
0 HIPPARCOS
1 20169U 89062B   18055.49503020  .00000032  00000-0 -65170-6 0  9996
2 20169   7.0751  50.8359 7188173 193.7697 124.5211  2.26148056200638
0 HIPPARCOS
1 20169U 89062B   18055.93575959 +.00000049 +00000-0 +12718-3 0  9999
2 20169 007.0769 050.6728 7188199 194.0959 123.3314 02.26148035200726
0 HIPPARCOS
1 20169U 89062B   18056.37649690 +.00000056 +00000-0 +20184-3 0  9996
2 20169 007.0785 050.5093 7188218 194.4228 122.1482 02.26148042200735
0 HIPPARCOS
1 20169U 89062B   18059.02113828  .00000048  00000-0  53346-3 0  9997
2 20169   7.0885  49.5314 7188317 196.3807 115.2275  2.26148239200713
0 HIPPARCOS
1 20169U 89062B   18059.90274785 +.00000018 +00000-0 +49372-3 0  9995
2 20169 007.0917 049.2058 7188336 197.0327 112.9729 02.26148344200813
0 HIPPARCOS
1 20169U 89062B   18060.34356209 +.00000000 +00000-0 +45461-3 0  9993
2 20169 007.0933 049.0430 7188347 197.3587 111.8538 02.26148404200820
0 HIPPARCOS
1 20169U 89062B   18060.34356667 -.00000004  00000-0  41978-3 0  9995
2 20169   7.0934  49.0435 7188371 197.3574 111.8577  2.26148387200743
0 HIPPARCOS
1 20169U 89062B   18062.10689570 -.00000043  00000-0  39177-3 0  9994
2 20169   7.0993  48.3931 7188419 198.6611 107.4387  2.26148613200786
0 HIPPARCOS
1 20169U 89062B   18063.42949272 -.00000055  00000-0  33588-3 0  9991
2 20169   7.1034  47.9064 7188491 199.6358 104.2078  2.26148714200812
0 HIPPARCOS
1 20169U 89062B   18064.31127343 -.00000051 +00000-0 +30690-3 0  9994
2 20169 007.1060 047.5814 7188566 200.2868 102.0939 02.26148768200910
0 HIPPARCOS
1 20169U 89062B   18066.51594964 -.00000013  00000-0  27489-3 0  9995
2 20169   7.1124  46.7693 7188772 201.9149  96.9916  2.26148855200885
0 HIPPARCOS
1 20169U 89062B   18066.95692556 -.00000012 +00000-0 +21281-3 0  9992
2 20169 007.1135 046.6065 7188865 202.2400 096.0052 02.26148863200977
0 HIPPARCOS
1 20169U 89062B   18067.39791453 -.00000022 +00000-0 +68896-4 0  9992
2 20169 007.1144 046.4426 7188662 202.5672 095.0294 02.26148752200980
0 HIPPARCOS
1 20169U 89062B   18070.04414286 -.00000010  00000-0 -77436-4 0  9992
2 20169   7.1223  45.4716 7188949 204.5164  89.4109  2.26148718200967
0 HIPPARCOS
1 20169U 89062B   18070.92631400 -.00000019 +00000-0 -14213-3 0  9990
2 20169 007.1248 045.1486 7189065 205.1659 087.6154 02.26148670201060
0 HIPPARCOS
1 20169U 89062B   18071.36741676 -.00000026  00000-0 -17947-3 0  9991
2 20169   7.1262  44.9878 7189130 205.4901  86.7316  2.26148644200996
0 HIPPARCOS
1 20169U 89062B   18074.89654725 -.00000104  00000-0 -49407-3 0  9993
2 20169   7.1364  43.6989 7189547 208.0869  79.9103  2.26148350201074
0 HIPPARCOS
1 20169U 89062B   18076.66130677 -.00000124  00000-0 -54810-3 0  9991
2 20169   7.1414  43.0551 7189705 209.3852  76.6541  2.26148150201114
0 HIPPARCOS
1 20169U 89062B   18077.98497489 -.00000117  00000-0 -49554-3 0  9995
2 20169   7.1454  42.5738 7189832 210.3569  74.2907  2.26148019201144
0 HIPPARCOS
1 20169U 89062B   18078.86744519 -.00000163 +00000-0 -86137-3 0  9991
2 20169 007.1469 042.2453 7190223 211.0101 072.7385 02.26147740201241
0 HIPPARCOS
1 20169U 89062B   18080.19131021 -.00000075  00000-0 -31700-3 0  9996
2 20169   7.1517  41.7723 7190059 211.9764  70.5286  2.26147803201190
0 HIPPARCOS
1 20169U 89062B   18081.95660314 -.00000043  00000-0 -24411-3 0  9999
2 20169   7.1567  41.1312 7190545 213.2720  67.7016  2.26147273201235
0 HIPPARCOS
1 20169U 89062B   18081.95660673 -.00000032 +00000-0 -16980-3 0  9997
2 20169 007.1567 041.1322 7190554 213.2704 067.7049 02.26147261201310
0 HIPPARCOS
1 20169U 89062B   18083.28072470  .00000016  00000-0  10665-3 0  9991
2 20169   7.1608  40.6547 7190682 214.2403  65.7020  2.26147229201263
0 HIPPARCOS
1 20169U 89062B   18085.92922273  .00000066  00000-0  65421-3 0  9994
2 20169   7.1688  39.7018 7190985 216.1773  61.9109  2.26147378201328
0 HIPPARCOS
1 20169U 89062B   18086.37066209 +.00000053 +00000-0 +63744-3 0  9994
2 20169 007.1702 039.5434 7191014 216.5000 061.2982 02.26147444201412
0 HIPPARCOS
1 20169U 89062B   18086.81210743 +.00000038 +00000-0 +61666-3 0  9991
2 20169 007.1716 039.3853 7191052 216.8221 060.6908 02.26147513201429
0 HIPPARCOS
1 20169U 89062B   18088.13646193 -.00000007  00000-0  56767-3 0  9993
2 20169   7.1752  38.9075 7191148 217.7926  58.8837  2.26147742201376
0 HIPPARCOS
1 20169U 89062B   18089.01939469 -.00000032 +00000-0 +54792-3 0  9996
2 20169 007.1775 038.5906 7191226 218.4372 057.7044 02.26147879201470
0 HIPPARCOS
1 20169U 89062B   18089.90235040 -.00000055  00000-0  50803-3 0  9992
2 20169   7.1797  38.2730 7191302 219.0826  56.5440  2.26148000201410
